start=new Date('2022-04-30T00:00:00.000Z').valueOf();
sats=[{"BSTAR":"-0.03079700000000","EPOCH":"2022-04-29T22:00:00.999936","REF_FRAME":"TEME","ECCENTRICITY":"0.00033240","COUNTRY_CODE":"US","OBJECT_ID":"2021-082AZ","MEAN_MOTION_DDOT":"0.0000000000000","TLE_LINE2":"2 49177  69.9998 209.2721 0003324 271.2638  72.5273 15.25438221  3657","SITE":"AFWTR","PERIOD":"94.399","FILE":"3421985","DECAY_DATE":null,"NORAD_CAT_ID":"49177","MEAN_MOTION":"15.25438221","INCLINATION":"69.9998","MEAN_MOTION_DOT":"-0.00728025","TLE_LINE1":"1 49177U 21082AZ  22119.91667824 -.00728025  00000-0 -30797-1 0  9992","APOAPSIS":"491.755","CENTER_NAME":"EARTH","RCS_SIZE":"LARGE","EPHEMERIS_TYPE":"0","TIME_SYSTEM":"UTC","REV_AT_EPOCH":"365","ELEMENT_SET_NO":"999","MEAN_ANOMALY":"72.5273","RA_OF_ASC_NODE":"209.2721","OBJECT_TYPE":"PAYLOAD","CLASSIFICATION_TYPE":"U","MEAN_ELEMENT_THEORY":"SGP4","LAUNCH_DATE":"2021-09-14","OBJECT_NAME":"STARLINK-3103","GP_ID":"202311118","SEMIMAJOR_AXIS":"6867.607","PERIAPSIS":"487.189","ARG_OF_PERICENTER":"271.2638"},{"NORAD_CAT_ID":"49178","DECAY_DATE":null,"INCLINATION":"70.0019","MEAN_MOTION":"14.98336830","MEAN_MOTION_DOT":"-0.00050512","TLE_LINE1":"1 49178U 21082BA  22119.91667824 -.00050512  00000-0 -42553-2 0  9996","CENTER_NAME":"EARTH","RCS_SIZE":"LARGE","APOAPSIS":"574.242","REF_FRAME":"TEME","ECCENTRICITY":"0.00031730","EPOCH":"2022-04-29T22:00:00.999936","BSTAR":"-0.00425530000000","COUNTRY_CODE":"US","OBJECT_ID":"2021-082BA","TLE_LINE2":"2 49178  70.0019 248.9765 0003173 284.7007  79.2216 14.98336830  3589","SITE":"AFWTR","PERIOD":"96.107","MEAN_MOTION_DDOT":"0.0000000000000","FILE":"3421985","MEAN_ELEMENT_THEORY":"SGP4","LAUNCH_DATE":"2021-09-14","OBJECT_NAME":"STARLINK-3086","CLASSIFICATION_TYPE":"U","SEMIMAJOR_AXIS":"6950.172","GP_ID":"202311368","ARG_OF_PERICENTER":"284.7007","PERIAPSIS":"569.831","REV_AT_EPOCH":"358","TIME_SYSTEM":"UTC","EPHEMERIS_TYPE":"0","MEAN_ANOMALY":"79.2216","ELEMENT_SET_NO":"999","RA_OF_ASC_NODE":"248.9765","OBJECT_TYPE":"PAYLOAD"},{"EPHEMERIS_TYPE":"0","TIME_SYSTEM":"UTC","REV_AT_EPOCH":"367","ELEMENT_SET_NO":"999","MEAN_ANOMALY":"106.4512","RA_OF_ASC_NODE":"209.2605","OBJECT_TYPE":"PAYLOAD","CLASSIFICATION_TYPE":"U","OBJECT_NAME":"STARLINK-3043","LAUNCH_DATE":"2021-09-14","MEAN_ELEMENT_THEORY":"SGP4","GP_ID":"202312120","SEMIMAJOR_AXIS":"6866.183","PERIAPSIS":"485.719","ARG_OF_PERICENTER":"276.2659","EPOCH":"2022-04-29T22:00:00.999936","BSTAR":"-0.03034000000000","ECCENTRICITY":"0.00033930","REF_FRAME":"TEME","OBJECT_ID":"2021-082BB","COUNTRY_CODE":"US","MEAN_MOTION_DDOT":"0.0000000000000","PERIOD":"94.370","TLE_LINE2":"2 49179  69.9999 209.2605 0003393 276.2659 106.4512 15.25912622  3672","SITE":"AFWTR","FILE":"3421985","DECAY_DATE":null,"NORAD_CAT_ID":"49179","MEAN_MOTION":"15.25912622","INCLINATION":"69.9999","TLE_LINE1":"1 49179U 21082BB  22119.91667824 -.00727603  00000-0 -30340-1 0  9999","MEAN_MOTION_DOT":"-0.00727603","APOAPSIS":"490.378","CENTER_NAME":"EARTH","RCS_SIZE":"LARGE"},{"DECAY_DATE":null,"NORAD_CAT_ID":"49180","MEAN_MOTION":"14.96727112","INCLINATION":"70.0011","TLE_LINE1":"1 49180U 21082BC  22119.91667824 -.00058111  00000-0 -51098-2 0  9996","MEAN_MOTION_DOT":"-0.00058111","APOAPSIS":"579.186","CENTER_NAME":"EARTH","RCS_SIZE":"LARGE","BSTAR":"-0.00510980000000","EPOCH":"2022-04-29T22:00:00.999936","ECCENTRICITY":"0.00031160","REF_FRAME":"TEME","OBJECT_ID":"2021-082BC","COUNTRY_CODE":"US","MEAN_MOTION_DDOT":"0.0000000000000","PERIOD":"96.210","TLE_LINE2":"2 49180  70.0011 228.2244 0003116 271.5327   8.8836 14.96727112  3595","SITE":"AFWTR","FILE":"3421985","CLASSIFICATION_TYPE":"U","OBJECT_NAME":"STARLINK-3050","LAUNCH_DATE":"2021-09-14","MEAN_ELEMENT_THEORY":"SGP4","GP_ID":"202312864","SEMIMAJOR_AXIS":"6955.154","PERIAPSIS":"574.852","ARG_OF_PERICENTER":"271.5327","EPHEMERIS_TYPE":"0","TIME_SYSTEM":"UTC","REV_AT_EPOCH":"359","ELEMENT_SET_NO":"999","MEAN_ANOMALY":"8.8836","RA_OF_ASC_NODE":"228.2244","OBJECT_TYPE":"PAYLOAD"},{"OBJECT_TYPE":"PAYLOAD","RA_OF_ASC_NODE":"248.9887","TIME_SYSTEM":"UTC","EPHEMERIS_TYPE":"0","REV_AT_EPOCH":"358","ELEMENT_SET_NO":"999","MEAN_ANOMALY":"184.5036","GP_ID":"202311612","SEMIMAJOR_AXIS":"6950.169","PERIAPSIS":"569.803","ARG_OF_PERICENTER":"282.2682","CLASSIFICATION_TYPE":"U","MEAN_ELEMENT_THEORY":"SGP4","LAUNCH_DATE":"2021-09-14","OBJECT_NAME":"STARLINK-3059","MEAN_MOTION_DDOT":"0.0000000000000","SITE":"AFWTR","TLE_LINE2":"2 49181  70.0011 248.9887 0003210 282.2682 184.5036 14.98337660  3586","PERIOD":"96.107","FILE":"3421985","BSTAR":"-0.00361930000000","EPOCH":"2022-04-29T22:00:00.999936","REF_FRAME":"TEME","ECCENTRICITY":"0.00032100","COUNTRY_CODE":"US","OBJECT_ID":"2021-082BD","MEAN_MOTION_DOT":"-0.00043023","TLE_LINE1":"1 49181U 21082BD  22119.91667824 -.00043023  00000-0 -36193-2 0  9992","APOAPSIS":"574.265","RCS_SIZE":"LARGE","CENTER_NAME":"EARTH","DECAY_DATE":null,"NORAD_CAT_ID":"49181","MEAN_MOTION":"14.98337660","INCLINATION":"70.0011"},{"OBJECT_TYPE":"PAYLOAD","RA_OF_ASC_NODE":"77.8469","REV_AT_EPOCH":"356","EPHEMERIS_TYPE":"0","TIME_SYSTEM":"UTC","MEAN_ANOMALY":"269.0367","ELEMENT_SET_NO":"999","SEMIMAJOR_AXIS":"6917.833","GP_ID":"202311887","ARG_OF_PERICENTER":"48.6982","PERIAPSIS":"538.153","MEAN_ELEMENT_THEORY":"SGP4","LAUNCH_DATE":"2021-11-13","OBJECT_NAME":"STARLINK-3151","CLASSIFICATION_TYPE":"U","TLE_LINE2":"2 49408  53.2173  77.8469 0002233  48.6982 269.0367 15.08855520  3562","SITE":"AFETR","PERIOD":"95.437","MEAN_MOTION_DDOT":"0.0000000000000","FILE":"3421985","REF_FRAME":"TEME","ECCENTRICITY":"0.00022330","EPOCH":"2022-04-29T22:00:00.999936","BSTAR":"-0.00188520000000","COUNTRY_CODE":"US","OBJECT_ID":"2021-104A","MEAN_MOTION_DOT":"-0.00030180","TLE_LINE1":"1 49408U 21104A   22119.91667824 -.00030180  00000-0 -18852-2 0  9991","CENTER_NAME":"EARTH","RCS_SIZE":"LARGE","APOAPSIS":"541.243","NORAD_CAT_ID":"49408","DECAY_DATE":null,"INCLINATION":"53.2173","MEAN_MOTION":"15.08855520"},{"GP_ID":"202312639","SEMIMAJOR_AXIS":"6917.993","PERIAPSIS":"538.375","ARG_OF_PERICENTER":"42.9900","CLASSIFICATION_TYPE":"U","MEAN_ELEMENT_THEORY":"SGP4","OBJECT_NAME":"STARLINK-3075","LAUNCH_DATE":"2021-11-13","OBJECT_TYPE":"PAYLOAD","RA_OF_ASC_NODE":"77.8477","TIME_SYSTEM":"UTC","EPHEMERIS_TYPE":"0","REV_AT_EPOCH":"356","ELEMENT_SET_NO":"999","MEAN_ANOMALY":"194.7779","MEAN_MOTION_DOT":"0.00040443","TLE_LINE1":"1 49409U 21104B   22119.91667824  .00040443  00000-0  25472-2 0  9999","APOAPSIS":"541.342","RCS_SIZE":"LARGE","CENTER_NAME":"EARTH","NORAD_CAT_ID":"49409","DECAY_DATE":null,"MEAN_MOTION":"15.08803013","INCLINATION":"53.2170","MEAN_MOTION_DDOT":"0.0000000000000","TLE_LINE2":"2 49409  53.2170  77.8477 0002144  42.9900 194.7779 15.08803013  3568","SITE":"AFETR","PERIOD":"95.440","FILE":"3421985","EPOCH":"2022-04-29T22:00:00.999936","BSTAR":"0.00254720000000","REF_FRAME":"TEME","ECCENTRICITY":"0.00021440","COUNTRY_CODE":"US","OBJECT_ID":"2021-104B"},{"RA_OF_ASC_NODE":"77.8465","OBJECT_TYPE":"PAYLOAD","REV_AT_EPOCH":"356","EPHEMERIS_TYPE":"0","TIME_SYSTEM":"UTC","MEAN_ANOMALY":"245.0517","ELEMENT_SET_NO":"999","GP_ID":"202312396","SEMIMAJOR_AXIS":"6917.890","ARG_OF_PERICENTER":"32.7735","PERIAPSIS":"538.213","MEAN_ELEMENT_THEORY":"SGP4","LAUNCH_DATE":"2021-11-13","OBJECT_NAME":"STARLINK-3147","CLASSIFICATION_TYPE":"U","SITE":"AFETR","TLE_LINE2":"2 49410  53.2163  77.8465 0002230  32.7735 245.0517 15.08836778  3562","PERIOD":"95.438","MEAN_MOTION_DDOT":"0.0000000000000","FILE":"3421985","REF_FRAME":"TEME","ECCENTRICITY":"0.00022300","BSTAR":"-0.00098244000000","EPOCH":"2022-04-29T22:00:00.999936","COUNTRY_CODE":"US","OBJECT_ID":"2021-104C","MEAN_MOTION_DOT":"-0.00015889","TLE_LINE1":"1 49410U 21104C   22119.91667824 -.00015889  00000-0 -98244-3 0  9997","CENTER_NAME":"EARTH","RCS_SIZE":"LARGE","APOAPSIS":"541.298","DECAY_DATE":null,"NORAD_CAT_ID":"49410","INCLINATION":"53.2163","MEAN_MOTION":"15.08836778"},{"COUNTRY_CODE":"US","OBJECT_ID":"2021-104D","EPOCH":"2022-04-29T22:00:00.999936","BSTAR":"-0.00174920000000","REF_FRAME":"TEME","ECCENTRICITY":"0.00020630","FILE":"3421985","MEAN_MOTION_DDOT":"0.0000000000000","SITE":"AFETR","TLE_LINE2":"2 49411  53.2168  67.8393 0002063  42.5435 270.2826 15.08840712  3563","PERIOD":"95.438","MEAN_MOTION":"15.08840712","INCLINATION":"53.2168","NORAD_CAT_ID":"49411","DECAY_DATE":null,"APOAPSIS":"541.170","RCS_SIZE":"LARGE","CENTER_NAME":"EARTH","MEAN_MOTION_DOT":"-0.00028020","TLE_LINE1":"1 49411U 21104D   22119.91667824 -.00028020  00000-0 -17492-2 0  9994","ELEMENT_SET_NO":"999","MEAN_ANOMALY":"270.2826","EPHEMERIS_TYPE":"0","TIME_SYSTEM":"UTC","REV_AT_EPOCH":"356","OBJECT_TYPE":"PAYLOAD","RA_OF_ASC_NODE":"67.8393","CLASSIFICATION_TYPE":"U","MEAN_ELEMENT_THEORY":"SGP4","OBJECT_NAME":"STARLINK-3162","LAUNCH_DATE":"2021-11-13","PERIAPSIS":"538.316","ARG_OF_PERICENTER":"42.5435","SEMIMAJOR_AXIS":"6917.878","GP_ID":"202311144"},{"SEMIMAJOR_AXIS":"6917.880","GP_ID":"202279657","ARG_OF_PERICENTER":"35.9713","PERIAPSIS":"538.222","OBJECT_NAME":"STARLINK-3144","LAUNCH_DATE":"2021-11-13","MEAN_ELEMENT_THEORY":"SGP4","CLASSIFICATION_TYPE":"U","RA_OF_ASC_NODE":"77.8442","OBJECT_TYPE":"PAYLOAD","REV_AT_EPOCH":"2690","TIME_SYSTEM":"UTC","EPHEMERIS_TYPE":"0","MEAN_ANOMALY":"221.8597","ELEMENT_SET_NO":"999","TLE_LINE1":"1 49412U 21104E   22119.91667824 -.00027374  00000-0 -17083-2 0  9992","MEAN_MOTION_DOT":"-0.00027374","RCS_SIZE":"LARGE","CENTER_NAME":"EARTH","APOAPSIS":"541.269","NORAD_CAT_ID":"49412","DECAY_DATE":null,"INCLINATION":"53.2170","MEAN_MOTION":"15.08839981","PERIOD":"95.438","TLE_LINE2":"2 49412  53.2170  77.8442 0002202  35.9713 221.8597 15.08839981 26909","SITE":"AFETR","MEAN_MOTION_DDOT":"0.0000000000000","FILE":"3421609","ECCENTRICITY":"0.00022020","REF_FRAME":"TEME","EPOCH":"2022-04-29T22:00:00.999936","BSTAR":"-0.00170830000000","OBJECT_ID":"2021-104E","COUNTRY_CODE":"US"}];
